1 53911U 22119AB  22282.83334491 -.00043369  00000-0 -30560-3 0  9999
2 53911  53.2184 179.4017 0001111 104.0145 108.5444 15.73244486  2778